start=new Date('2021-11-24T00:00:00.000Z').valueOf();
sats=[{"RCS_SIZE":"LARGE","DECAY_DATE":null,"INCLINATION":"53.0551","OBJECT_TYPE":"PAYLOAD","GP_ID":"190338704","TIME_SYSTEM":"UTC","COUNTRY_CODE":"US","SITE":"AFETR","MEAN_ELEMENT_THEORY":"SGP4","MEAN_MOTION_DOT":"-0.00000357","TLE_LINE2":"2 48598  53.0551 337.3708 0001346  72.0440 288.0696 15.06394263 29297","EPOCH":"2021-11-23T10:04:53.835456","ELEMENT_SET_NO":"999","PERIOD":"95.593","REV_AT_EPOCH":"2929","EPHEMERIS_TYPE":"0","TLE_LINE1":"1 48598U 21041AX  21327.42006754 -.00000357  00000-0 -50634-5 0  9995","OBJECT_ID":"2021-041AX","BSTAR":"-0.00000506340000","MEAN_MOTION_DDOT":"0.0000000000000","APOAPSIS":"548.163","CENTER_NAME":"EARTH","REF_FRAME":"TEME","MEAN_ANOMALY":"288.0696","ARG_OF_PERICENTER":"72.0440","PERIAPSIS":"546.299","SEMIMAJOR_AXIS":"6925.366","FILE":"3222418","NORAD_CAT_ID":"48598","ECCENTRICITY":"0.00013460","LAUNCH_DATE":"2021-05-15","CLASSIFICATION_TYPE":"U","MEAN_MOTION":"15.06394263","RA_OF_ASC_NODE":"337.3708","OBJECT_NAME":"STARLINK-2256"},{"ECCENTRICITY":"0.00019490","FILE":"3222418","NORAD_CAT_ID":"48599","SEMIMAJOR_AXIS":"6925.307","PERIAPSIS":"545.822","MEAN_MOTION":"15.06413499","CLASSIFICATION_TYPE":"U","RA_OF_ASC_NODE":"312.5333","OBJECT_NAME":"STARLINK-2274","LAUNCH_DATE":"2021-05-15","APOAPSIS":"548.522","BSTAR":"0.00013252000000","MEAN_MOTION_DDOT":"0.0000000000000","CENTER_NAME":"EARTH","REV_AT_EPOCH":"3045","EPHEMERIS_TYPE":"0","OBJECT_ID":"2021-041AY","TLE_LINE1":"1 48599U 21041AY  21327.37998658  .00001693  00000-0  13252-3 0  9998","ARG_OF_PERICENTER":"56.7799","REF_FRAME":"TEME","MEAN_ANOMALY":"303.3376","MEAN_ELEMENT_THEORY":"SGP4","MEAN_MOTION_DOT":"0.00001693","TLE_LINE2":"2 48599  53.0555 312.5333 0001949  56.7799 303.3376 15.06413499 30455","TIME_SYSTEM":"UTC","SITE":"AFETR","COUNTRY_CODE":"US","ELEMENT_SET_NO":"999","PERIOD":"95.591","EPOCH":"2021-11-23T09:07:10.840512","DECAY_DATE":null,"RCS_SIZE":"LARGE","INCLINATION":"53.0555","GP_ID":"190339253","OBJECT_TYPE":"PAYLOAD"},{"REF_FRAME":"TEME","MEAN_ANOMALY":"308.4604","ARG_OF_PERICENTER":"51.6536","REV_AT_EPOCH":"3024","EPHEMERIS_TYPE":"0","TLE_LINE1":"1 48600U 21041AZ  21327.41730740  .00001584  00000-0  12521-3 0  9999","OBJECT_ID":"2021-041AZ","MEAN_MOTION_DDOT":"0.0000000000000","BSTAR":"0.00012521000000","APOAPSIS":"548.378","CENTER_NAME":"EARTH","LAUNCH_DATE":"2021-05-15","CLASSIFICATION_TYPE":"U","MEAN_MOTION":"15.06400120","RA_OF_ASC_NODE":"327.3716","OBJECT_NAME":"STARLINK-2275","PERIAPSIS":"546.048","SEMIMAJOR_AXIS":"6925.348","NORAD_CAT_ID":"48600","FILE":"3222418","ECCENTRICITY":"0.00016820","OBJECT_TYPE":"PAYLOAD","GP_ID":"190339125","DECAY_DATE":null,"RCS_SIZE":"LARGE","INCLINATION":"53.0531","EPOCH":"2021-11-23T10:00:55.359360","ELEMENT_SET_NO":"999","PERIOD":"95.592","TIME_SYSTEM":"UTC","COUNTRY_CODE":"US","SITE":"AFETR","MEAN_ELEMENT_THEORY":"SGP4","MEAN_MOTION_DOT":"0.00001584","TLE_LINE2":"2 48600  53.0531 327.3716 0001682  51.6536 308.4604 15.06400120 30242"},{"EPOCH":"2021-11-23T22:39:15.089760","PERIOD":"95.593","ELEMENT_SET_NO":"999","SITE":"AFETR","COUNTRY_CODE":"US","TIME_SYSTEM":"UTC","MEAN_MOTION_DOT":"0.00000037","TLE_LINE2":"2 48602  53.0464 310.0454 0001794  69.7093 290.4089 15.06387811 30528","MEAN_ELEMENT_THEORY":"SGP4","GP_ID":"190364871","OBJECT_TYPE":"PAYLOAD","RCS_SIZE":"LARGE","DECAY_DATE":null,"INCLINATION":"53.0464","LAUNCH_DATE":"2021-05-15","RA_OF_ASC_NODE":"310.0454","OBJECT_NAME":"STARLINK-2713","MEAN_MOTION":"15.06387811","CLASSIFICATION_TYPE":"U","SEMIMAJOR_AXIS":"6925.386","PERIAPSIS":"546.009","ECCENTRICITY":"0.00017940","NORAD_CAT_ID":"48602","FILE":"3222563","MEAN_ANOMALY":"290.4089","REF_FRAME":"TEME","ARG_OF_PERICENTER":"69.7093","OBJECT_ID":"2021-041BB","TLE_LINE1":"1 48602U 21041BB  21327.94392465  .00000037  00000-0  21388-4 0  9991","EPHEMERIS_TYPE":"0","REV_AT_EPOCH":"3052","CENTER_NAME":"EARTH","APOAPSIS":"548.493","BSTAR":"0.00002138800000","MEAN_MOTION_DDOT":"0.0000000000000"},{"MEAN_ELEMENT_THEORY":"SGP4","TLE_LINE2":"2 48603  53.0515 305.1228 0002122  63.0102 297.1103 15.06403125 30601","MEAN_MOTION_DOT":"-0.00000344","TIME_SYSTEM":"UTC","COUNTRY_CODE":"US","SITE":"AFETR","ELEMENT_SET_NO":"999","PERIOD":"95.592","EPOCH":"2021-11-23T22:09:21.438720","INCLINATION":"53.0515","DECAY_DATE":null,"RCS_SIZE":"LARGE","OBJECT_TYPE":"PAYLOAD","GP_ID":"190365033","FILE":"3222563","NORAD_CAT_ID":"48603","ECCENTRICITY":"0.00021220","PERIAPSIS":"545.734","SEMIMAJOR_AXIS":"6925.339","CLASSIFICATION_TYPE":"U","MEAN_MOTION":"15.06403125","OBJECT_NAME":"STARLINK-2714","RA_OF_ASC_NODE":"305.1228","LAUNCH_DATE":"2021-05-15","BSTAR":"-0.00000420180000","MEAN_MOTION_DDOT":"0.0000000000000","APOAPSIS":"548.674","CENTER_NAME":"EARTH","REV_AT_EPOCH":"3060","EPHEMERIS_TYPE":"0","TLE_LINE1":"1 48603U 21041BC  21327.92316480 -.00000344  00000-0 -42018-5 0  9990","OBJECT_ID":"2021-041BC","ARG_OF_PERICENTER":"63.0102","REF_FRAME":"TEME","MEAN_ANOMALY":"297.1103"},{"INCLINATION":"53.0565","DECAY_DATE":null,"RCS_SIZE":"LARGE","OBJECT_TYPE":"PAYLOAD","GP_ID":"190339462","MEAN_ELEMENT_THEORY":"SGP4","MEAN_MOTION_DOT":"0.00001496","TLE_LINE2":"2 48604  53.0565 337.7767 0001680  65.7157 294.4007 15.06399823 30098","TIME_SYSTEM":"UTC","COUNTRY_CODE":"US","SITE":"AFETR","ELEMENT_SET_NO":"999","PERIOD":"95.592","EPOCH":"2021-11-23T07:52:11.753184","MEAN_MOTION_DDOT":"0.0000000000000","BSTAR":"0.00011934000000","APOAPSIS":"548.378","CENTER_NAME":"EARTH","REV_AT_EPOCH":"3009","EPHEMERIS_TYPE":"0","TLE_LINE1":"1 48604U 21041BD  21327.32791381  .00001496  00000-0  11934-3 0  9990","OBJECT_ID":"2021-041BD","ARG_OF_PERICENTER":"65.7157","REF_FRAME":"TEME","MEAN_ANOMALY":"294.4007","NORAD_CAT_ID":"48604","FILE":"3222418","ECCENTRICITY":"0.00016800","PERIAPSIS":"546.051","SEMIMAJOR_AXIS":"6925.349","CLASSIFICATION_TYPE":"U","MEAN_MOTION":"15.06399823","OBJECT_NAME":"STARLINK-2757","RA_OF_ASC_NODE":"337.7767","LAUNCH_DATE":"2021-05-15"},{"OBJECT_NAME":"STARLINK-2758","RA_OF_ASC_NODE":"310.0081","CLASSIFICATION_TYPE":"U","MEAN_MOTION":"15.06400983","LAUNCH_DATE":"2021-05-26","NORAD_CAT_ID":"48638","FILE":"3222563","ECCENTRICITY":"0.00019150","PERIAPSIS":"545.884","SEMIMAJOR_AXIS":"6925.346","ARG_OF_PERICENTER":"52.3553","MEAN_ANOMALY":"307.7609","REF_FRAME":"TEME","CENTER_NAME":"EARTH","MEAN_MOTION_DDOT":"0.0000000000000","BSTAR":"0.00010494000000","APOAPSIS":"548.537","TLE_LINE1":"1 48638U 21044A   21327.94297905  .00001282  00000-0  10494-3 0  9994","OBJECT_ID":"2021-044A","REV_AT_EPOCH":"2763","EPHEMERIS_TYPE":"0","PERIOD":"95.592","ELEMENT_SET_NO":"999","EPOCH":"2021-11-23T22:37:53.389920","MEAN_MOTION_DOT":"0.00001282","TLE_LINE2":"2 48638  53.0565 310.0081 0001915  52.3553 307.7609 15.06400983 27633","MEAN_ELEMENT_THEORY":"SGP4","COUNTRY_CODE":"US","SITE":"AFETR","TIME_SYSTEM":"UTC","OBJECT_TYPE":"PAYLOAD","GP_ID":"190365164","DECAY_DATE":null,"RCS_SIZE":"LARGE","INCLINATION":"53.0565"},{"ECCENTRICITY":"0.00017960","NORAD_CAT_ID":"48639","FILE":"3222563","SEMIMAJOR_AXIS":"6925.360","PERIAPSIS":"545.982","OBJECT_NAME":"STARLINK-2739","RA_OF_ASC_NODE":"311.2596","MEAN_MOTION":"15.06396139","CLASSIFICATION_TYPE":"U","LAUNCH_DATE":"2021-05-26","CENTER_NAME":"EARTH","APOAPSIS":"548.469","MEAN_MOTION_DDOT":"0.0000000000000","BSTAR":"0.00003975400000","OBJECT_ID":"2021-044B","TLE_LINE1":"1 48639U 21044B   21327.66285520  .00000311  00000-0  39754-4 0  9997","EPHEMERIS_TYPE":"0","REV_AT_EPOCH":"2759","ARG_OF_PERICENTER":"66.1078","MEAN_ANOMALY":"294.0099","REF_FRAME":"TEME","TLE_LINE2":"2 48639  53.0551 311.2596 0001796  66.1078 294.0099 15.06396139 27598","MEAN_MOTION_DOT":"0.00000311","MEAN_ELEMENT_THEORY":"SGP4","SITE":"AFETR","COUNTRY_CODE":"US","TIME_SYSTEM":"UTC","PERIOD":"95.592","ELEMENT_SET_NO":"999","EPOCH":"2021-11-23T15:54:30.689280","DECAY_DATE":null,"INCLINATION":"53.0551","RCS_SIZE":"LARGE","GP_ID":"190364749","OBJECT_TYPE":"PAYLOAD"},{"MEAN_MOTION":"15.06397652","CLASSIFICATION_TYPE":"U","RA_OF_ASC_NODE":"312.6085","OBJECT_NAME":"STARLINK-2736","LAUNCH_DATE":"2021-05-26","ECCENTRICITY":"0.00018070","FILE":"3222418","NORAD_CAT_ID":"48640","SEMIMAJOR_AXIS":"6925.356","PERIAPSIS":"545.969","ARG_OF_PERICENTER":"54.2639","REF_FRAME":"TEME","MEAN_ANOMALY":"305.8518","APOAPSIS":"548.472","MEAN_MOTION_DDOT":"0.0000000000000","BSTAR":"-0.00000279830000","CENTER_NAME":"EARTH","EPHEMERIS_TYPE":"0","REV_AT_EPOCH":"2754","OBJECT_ID":"2021-044C","TLE_LINE1":"1 48640U 21044C   21327.36429125 -.00000323  00000-0 -27983-5 0  9994","ELEMENT_SET_NO":"999","PERIOD":"95.592","EPOCH":"2021-11-23T08:44:34.764000","MEAN_ELEMENT_THEORY":"SGP4","MEAN_MOTION_DOT":"-0.00000323","TLE_LINE2":"2 48640  53.0565 312.6085 0001807  54.2639 305.8518 15.06397652 27540","TIME_SYSTEM":"UTC","SITE":"AFETR","COUNTRY_CODE":"US","GP_ID":"190339258","OBJECT_TYPE":"PAYLOAD","DECAY_DATE":null,"INCLINATION":"53.0565","RCS_SIZE":"LARGE"},{"DECAY_DATE":null,"RCS_SIZE":"LARGE","INCLINATION":"53.0562","OBJECT_TYPE":"PAYLOAD","GP_ID":"190364911","TIME_SYSTEM":"UTC","COUNTRY_CODE":"US","SITE":"AFETR","MEAN_ELEMENT_THEORY":"SGP4","TLE_LINE2":"2 48641  53.0562 315.0528 0001652  60.7992 299.3162 15.06400959 27568","MEAN_MOTION_DOT":"0.00000328","EPOCH":"2021-11-23T22:25:19.213824","ELEMENT_SET_NO":"999","PERIOD":"95.592","EPHEMERIS_TYPE":"0","REV_AT_EPOCH":"2756","TLE_LINE1":"1 48641U 21044D   21327.93425016  .00000328  00000-0  40917-4 0  9997","OBJECT_ID":"2021-044D","BSTAR":"0.00004091700000","MEAN_MOTION_DDOT":"0.0000000000000","APOAPSIS":"548.355","CENTER_NAME":"EARTH","REF_FRAME":"TEME","MEAN_ANOMALY":"299.3162","ARG_OF_PERICENTER":"60.7992","PERIAPSIS":"546.067","SEMIMAJOR_AXIS":"6925.346","FILE":"3222563","NORAD_CAT_ID":"48641","ECCENTRICITY":"0.00016520","LAUNCH_DATE":"2021-05-26","CLASSIFICATION_TYPE":"U","MEAN_MOTION":"15.06400959","RA_OF_ASC_NODE":"315.0528","OBJECT_NAME":"STARLINK-2754"}];
